{"type": "FeatureCollection", "features": [ {"type": "Feature", "properties": {"norad_id": 66912, "name": "1998-067XY", "group": "last-30-days", "lat": -34.34240780131612, "lon": 22.84411454852884, "alt_km": 416.3901669909246, "timestamp": "2025-12-07T03:52:31.205482+00:00", "meta": {"OBJECT_NAME": "1998-067XY", "OBJECT_ID": "1998-067XY", "EPOCH": "2025-12-06T14:31:44.195232", "MEAN_MOTION": 15.50339462, "ECCENTRICITY": 0.00052344, "INCLINATION": 51.6295, "RA_OF_ASC_NODE": 172.8274, "ARG_OF_PERICENTER": 193.0919, "MEAN_ANOMALY": 166.9935, "EPHEMERIS_TYPE": 0, "CLASSIFICATION_TYPE": "U", "NORAD_CAT_ID": 66912, "ELEMENT_SET_NO": 999, "REV_AT_EPOCH": 65, "BSTAR": 0.0011669061, "MEAN_MOTION_DOT": 0.00067549, "MEAN_MOTION_DDOT": 0}, "tle": {"line1": "1 66912U 98067XY  25340.60537263  .00067549  00000+0  11669-2 0  9995", "line2": "2 66912  51.6295 172.8274 0005234 193.0919 166.9935 15.50339462   659"}}, "geometry": {"type": "Point", "coordinates": [22.84411454852884, -34.34240780131612]}}, {"type": "Feature", "properties": {"norad_id": 66913, "name": "2025-284A", "group": "last-30-days", "lat": 4.260191265953526, "lon": -43.88605082919942, "alt_km": 505.4699456596145, "timestamp": "2025-12-07T03:52:31.205495+00:00", "meta": {"OBJECT_NAME": "2025-284A", "OBJECT_ID": "2025-284A", "EPOCH": "2025-12-05T19:30:25.528608", "MEAN_MOTION": 15.20033669, "ECCENTRICITY": 0.00128266, "INCLINATION": 80.4023, "RA_OF_ASC_NODE": 138.5488, "ARG_OF_PERICENTER": 252.3263, "MEAN_ANOMALY": 107.6565, "EPHEMERIS_TYPE": 0, "CLASSIFICATION_TYPE": "U", "NORAD_CAT_ID": 66913, "ELEMENT_SET_NO": 999, "REV_AT_EPOCH": 7, "BSTAR": 0.00014555981, "MEAN_MOTION_DOT": 3.163e-05, "MEAN_MOTION_DDOT": 0}, "tle": {"line1": "1 66913U 25284A   25339.81279547  .00003163  00000+0  14556-3 0  9997", "line2": "2 66913  80.4023 138.5488 0012826 252.3263 107.6565 15.20033669    75"}}, "geometry": {"type": "Point", "coordinates": [-43.88605082919942, 4.260191265953526]}}, {"type": "Feature", "properties": {"norad_id": 66915, "name": "HULIANWANG DIGUI 14A", "group": "last-30-days", "lat": 21.39947099362783, "lon": 159.22433872791908, "alt_km": 875.9453703784184, "timestamp": "2025-12-07T03:52:31.205505+00:00", "meta": {"OBJECT_NAME": "HULIANWANG DIGUI 14A", "OBJECT_ID": "2025-285A", "EPOCH": "2025-12-06T08:58:45.410016", "MEAN_MOTION": 14.06225102, "ECCENTRICITY": 0.00087698, "INCLINATION": 49.9887, "RA_OF_ASC_NODE": 143.2276, "ARG_OF_PERICENTER": 217.1051, "MEAN_ANOMALY": 142.9249, "EPHEMERIS_TYPE": 0, "CLASSIFICATION_TYPE": "U", "NORAD_CAT_ID": 66915, "ELEMENT_SET_NO": 999, "REV_AT_EPOCH": 1, "BSTAR": 1.8511052e-05, "MEAN_MOTION_DOT": -1.22e-06, "MEAN_MOTION_DDOT": 0}, "tle": {"line1": "1 66915U 25285A   25340.37413669 -.00000122  00000+0  18511-4 0  9997", "line2": "2 66915  49.9887 143.2276 0008769 217.1051 142.9249 14.06225102    11"}}, "geometry": {"type": "Point", "coordinates": [159.22433872791908, 21.39947099362783]}}, {"type": "Feature", "properties": {"norad_id": 66916, "name": "HULIANWANG DIGUI 14B", "group": "last-30-days", "lat": 20.833022666347134, "lon": 158.68540162758208, "alt_km": 873.8920831876494, "timestamp": "2025-12-07T03:52:31.205517+00:00", "meta": {"OBJECT_NAME": "HULIANWANG DIGUI 14B", "OBJECT_ID": "2025-285B", "EPOCH": "2025-12-06T12:23:28.538592", "MEAN_MOTION": 14.0595389, "ECCENTRICITY": 0.0008093, "INCLINATION": 50.0119, "RA_OF_ASC_NODE": 142.6984, "ARG_OF_PERICENTER": 262.9615, "MEAN_ANOMALY": 97.037, "EPHEMERIS_TYPE": 0, "CLASSIFICATION_TYPE": "U", "NORAD_CAT_ID": 66916, "ELEMENT_SET_NO": 999, "REV_AT_EPOCH": 3, "BSTAR": 1.7671e-05, "MEAN_MOTION_DOT": -1.23e-06, "MEAN_MOTION_DDOT": 0}, "tle": {"line1": "1 66916U 25285B   25340.51630253 -.00000123  00000+0  17671-4 0  9991", "line2": "2 66916  50.0119 142.6984 0008093 262.9615  97.0370 14.05953890    34"}}, "geometry": {"type": "Point", "coordinates": [158.68540162758208, 20.833022666347134]}}, {"type": "Feature", "properties": {"norad_id": 66917, "name": "HULIANWANG DIGUI 14C", "group": "last-30-days", "lat": 21.108638969996232, "lon": 158.95673886024477, "alt_km": 873.2018270576127, "timestamp": "2025-12-07T03:52:31.205528+00:00", "meta": {"OBJECT_NAME": "HULIANWANG DIGUI 14C", "OBJECT_ID": "2025-285C", "EPOCH": "2025-12-06T15:48:08.415072", "MEAN_MOTION": 14.06085009, "ECCENTRICITY": 0.0007579, "INCLINATION": 50.0003, "RA_OF_ASC_NODE": 142.1014, "ARG_OF_PERICENTER": 263.8589, "MEAN_ANOMALY": 96.1453, "EPHEMERIS_TYPE": 0, "CLASSIFICATION_TYPE": "U", "NORAD_CAT_ID": 66917, "ELEMENT_SET_NO": 999, "REV_AT_EPOCH": 5, "BSTAR": -0.0014404, "MEAN_MOTION_DOT": -2.531e-05, "MEAN_MOTION_DDOT": 0}, "tle": {"line1": "1 66917U 25285C   25340.65843073 -.00002531  00000+0 -14404-2 0  9998", "line2": "2 66917  50.0003 142.1014 0007579 263.8589  96.1453 14.06085009    57"}}, "geometry": {"type": "Point", "coordinates": [158.95673886024477, 21.108638969996232]}}, {"type": "Feature", "properties": {"norad_id": 66918, "name": "HULIANWANG DIGUI 14D", "group": "last-30-days", "lat": 21.29919937304506, "lon": 159.1507800464376, "alt_km": 872.645679187417, "timestamp": "2025-12-07T03:52:31.205538+00:00", "meta": {"OBJECT_NAME": "HULIANWANG DIGUI 14D", "OBJECT_ID": "2025-285D", "EPOCH": "2025-12-06T15:48:07.003296", "MEAN_MOTION": 14.06184066, "ECCENTRICITY": 0.0006457, "INCLINATION": 50.0025, "RA_OF_ASC_NODE": 142.1026, "ARG_OF_PERICENTER": 260.3937, "MEAN_ANOMALY": 99.6239, "EPHEMERIS_TYPE": 0, "CLASSIFICATION_TYPE": "U", "NORAD_CAT_ID": 66918, "ELEMENT_SET_NO": 999, "REV_AT_EPOCH": 5, "BSTAR": -0.0014374, "MEAN_MOTION_DOT": -2.53e-05, "MEAN_MOTION_DDOT": 0}, "tle": {"line1": "1 66918U 25285D   25340.65841439 -.00002530  00000+0 -14374-2 0  9998", "line2": "2 66918  50.0025 142.1026 0006457 260.3937  99.6239 14.06184066    51"}}, "geometry": {"type": "Point", "coordinates": [159.1507800464376, 21.29919937304506]}}, {"type": "Feature", "properties": {"norad_id": 66919, "name": "HULIANWANG DIGUI 14E", "group": "last-30-days", "lat": 21.411862731381213, "lon": 159.2666681036845, "alt_km": 872.2257080322124, "timestamp": "2025-12-07T03:52:31.205548+00:00", "meta": {"OBJECT_NAME": "HULIANWANG DIGUI 14E", "OBJECT_ID": "2025-285E", "EPOCH": "2025-12-06T15:48:05.582880", "MEAN_MOTION": 14.06221053, "ECCENTRICITY": 0.0007995, "INCLINATION": 50.005, "RA_OF_ASC_NODE": 142.1049, "ARG_OF_PERICENTER": 271.3184, "MEAN_ANOMALY": 88.6806, "EPHEMERIS_TYPE": 0, "CLASSIFICATION_TYPE": "U", "NORAD_CAT_ID": 66919, "ELEMENT_SET_NO": 999, "REV_AT_EPOCH": 5, "BSTAR": -0.0014339, "MEAN_MOTION_DOT": -2.526e-05, "MEAN_MOTION_DDOT": 0}, "tle": {"line1": "1 66919U 25285E   25340.65839795 -.00002526  00000+0 -14339-2 0  9997", "line2": "2 66919  50.0050 142.1049 0007995 271.3184  88.6806 14.06221053    55"}}, "geometry": {"type": "Point", "coordinates": [159.2666681036845, 21.411862731381213]}}, {"type": "Feature", "properties": {"norad_id": 66920, "name": "HULIANWANG DIGUI 14F", "group": "last-30-days", "lat": 21.661945267946045, "lon": 159.52296684575515, "alt_km": 871.3523074791192, "timestamp": "2025-12-07T03:52:31.205558+00:00", "meta": {"OBJECT_NAME": "HULIANWANG DIGUI 14F", "OBJECT_ID": "2025-285F", "EPOCH": "2025-12-06T15:48:03.817728", "MEAN_MOTION": 14.06353961, "ECCENTRICITY": 0.0005937, "INCLINATION": 50.0083, "RA_OF_ASC_NODE": 142.1068, "ARG_OF_PERICENTER": 267.7054, "MEAN_ANOMALY": 92.3172, "EPHEMERIS_TYPE": 0, "CLASSIFICATION_TYPE": "U", "NORAD_CAT_ID": 66920, "ELEMENT_SET_NO": 999, "REV_AT_EPOCH": 5, "BSTAR": -0.0014304, "MEAN_MOTION_DOT": -2.526e-05, "MEAN_MOTION_DDOT": 0}, "tle": {"line1": "1 66920U 25285F   25340.65837752 -.00002526  00000+0 -14304-2 0  9992", "line2": "2 66920  50.0083 142.1068 0005937 267.7054  92.3172 14.06353961    55"}}, "geometry": {"type": "Point", "coordinates": [159.52296684575515, 21.661945267946045]}}, {"type": "Feature", "properties": {"norad_id": 66921, "name": "HULIANWANG DIGUI 14G", "group": "last-30-days", "lat": 21.73515291999755, "lon": 159.59870172072524, "alt_km": 871.1011740599652, "timestamp": "2025-12-07T03:52:31.205588+00:00", "meta": {"OBJECT_NAME": "HULIANWANG DIGUI 14G", "OBJECT_ID": "2025-285G", "EPOCH": "2025-12-06T15:48:02.911392", "MEAN_MOTION": 14.06378763, "ECCENTRICITY": 0.0006951, "INCLINATION": 50.01, "RA_OF_ASC_NODE": 142.1083, "ARG_OF_PERICENTER": 274.3391, "MEAN_ANOMALY": 85.672, "EPHEMERIS_TYPE": 0, "CLASSIFICATION_TYPE": "U", "NORAD_CAT_ID": 66921, "ELEMENT_SET_NO": 999, "REV_AT_EPOCH": 5, "BSTAR": -0.0014282, "MEAN_MOTION_DOT": -2.523e-05, "MEAN_MOTION_DDOT": 0}, "tle": {"line1": "1 66921U 25285G   25340.65836703 -.00002523  00000+0 -14282-2 0  9990", "line2": "2 66921  50.0100 142.1083 0006951 274.3391  85.6720 14.06378763    59"}}, "geometry": {"type": "Point", "coordinates": [159.59870172072524, 21.73515291999755]}}, {"type": "Feature", "properties": {"norad_id": 66922, "name": "HULIANWANG DIGUI 14H", "group": "last-30-days", "lat": 21.941960322329923, "lon": 159.81162743293126, "alt_km": 870.1887150535376, "timestamp": "2025-12-07T03:52:31.205599+00:00", "meta": {"OBJECT_NAME": "HULIANWANG DIGUI 14H", "OBJECT_ID": "2025-285H", "EPOCH": "2025-12-06T15:48:01.033920", "MEAN_MOTION": 14.06472871, "ECCENTRICITY": 0.0006886, "INCLINATION": 50.0075, "RA_OF_ASC_NODE": 142.106, "ARG_OF_PERICENTER": 281.0831, "MEAN_ANOMALY": 78.93, "EPHEMERIS_TYPE": 0, "CLASSIFICATION_TYPE": "U", "NORAD_CAT_ID": 66922, "ELEMENT_SET_NO": 999, "REV_AT_EPOCH": 5, "BSTAR": 8.179e-06, "MEAN_MOTION_DOT": -1.39e-06, "MEAN_MOTION_DDOT": 0}, "tle": {"line1": "1 66922U 25285H   25340.65834530 -.00000139  00000+0  81790-5 0  9998", "line2": "2 66922  50.0075 142.1060 0006886 281.0831  78.9300 14.06472871    51"}}, "geometry": {"type": "Point", "coordinates": [159.81162743293126, 21.941960322329923]}}]}